H1 CPF 01  gfz 2022 01 19 13  5192 terrasarx 
H2 0702601  6201 31698    2022 01 19 12 59 42 2022 01 24 00 00 42   120 1 1  0 0 0
H9
10 0 59598  46782.000000  0   -1931285.791  -5585591.239  -3547822.460
10 0 59598  46902.000000  0   -1937332.478  -5038245.474  -4287858.343
10 0 59598  47022.000000  0   -1899332.633  -4403531.493  -4952770.191
10 0 59598  47142.000000  0   -1816557.685  -3693350.003  -5531000.570
10 0 59598  47262.000000  0   -1689272.761  -2920889.075  -6012526.594
10 0 59598  47382.000000  0   -1518748.622  -2100373.245  -6389024.018
10 0 59598  47502.000000  0   -1307252.383  -1246798.342  -6653999.529
10 0 59598  47622.000000  0   -1058018.352   -375658.542  -6802891.456
10 0 59598  47742.000000  0    -775199.278    497330.727  -6833139.480
10 0 59598  47862.000000  0    -463797.593   1356509.370  -6744223.295
10 0 59598  47982.000000  0    -129579.194   2186546.160  -6537670.345
10 0 59598  48102.000000  0     221029.256   2972705.563  -6217033.619
10 0 59598  48222.000000  0     581060.532   3701106.378  -5787838.536
10 0 59598  48342.000000  0     943141.166   4358965.821  -5257496.228
10 0 59598  48462.000000  0    1299637.303   4934825.985  -4635187.262
10 0 59598  48582.000000  0    1642811.159   5418760.472  -3931713.995
10 0 59598  48702.000000  0    1964984.579   5802554.393  -3159321.875
10 0 59598  48822.000000  0    2258706.012   6079854.596  -2331493.521
10 0 59598  48942.000000  0    2516917.861   6246287.014  -1462716.910
10 0 59598  49062.000000  0    2733119.709   6299536.384   -568230.606
10 0 59598  49182.000000  0    2901522.900   6239384.669    336248.444
10 0 59598  49302.000000  0    3017192.408   6067707.141   1234807.699
10 0 59598  49422.000000  0    3076172.478   5788427.267   2111626.647
10 0 59598  49542.000000  0    3075592.679   5407430.509   2951263.770
10 0 59598  49662.000000  0    3013751.958   4932438.695   3738936.312
10 0 59598  49782.000000  0    2890178.940   4372848.981   4460786.495
10 0 59598  49902.000000  0    2705664.537   3739540.438   5104130.601
10 0 59598  50022.000000  0    2462266.517   3044652.507   5657680.556
10 0 59598  50142.000000  0    2163290.471   2301345.727   6111736.959
10 0 59598  50262.000000  0    1813245.574   1523547.726   6458355.049
10 0 59598  50382.000000  0    1417774.583    725687.387   6691477.982
10 0 59598  50502.000000  0     983560.901    -77574.182   6807035.214
10 0 59598  50622.000000  0     518215.124   -871611.545   6803009.862
10 0 59598  50742.000000  0      30141.393  -1642101.552   6679472.803
10 0 59598  50862.000000  0    -471614.556  -2375281.508   6438581.106
10 0 59598  50982.000000  0    -977532.718  -3058195.494   6084541.805
10 0 59598  51102.000000  0   -1477796.990  -3678923.685   5623541.196
10 0 59598  51222.000000  0   -1962483.373  -4226792.486   5063644.012
10 0 59598  51342.000000  0   -2421757.448  -4692563.893   4414660.611
10 0 59598  51462.000000  0   -2846076.257  -5068599.357   3687980.641
10 0 59598  51582.000000  0   -3226388.301  -5348993.012   2896374.668
10 0 59598  51702.000000  0   -3554326.557  -5529670.144   2053768.948
10 0 59598  51822.000000  0   -3822391.527  -5608450.534   1174997.912
10 0 59598  51942.000000  0   -4024119.974  -5585074.115    275537.477
10 0 59598  52062.000000  0   -4154234.508  -5461187.850   -628774.858
10 0 59598  52182.000000  0   -4208770.209  -5240294.204  -1522028.068
10 0 59598  52302.000000  0   -4185174.255  -4927661.144  -2388526.951
10 0 59598  52422.000000  0   -4082376.242  -4530196.616  -3213075.174
10 0 59598  52542.000000  0   -3900827.599  -4056291.906  -3981245.643
10 0 59598  52662.000000  0   -3642510.054  -3515638.969  -4679632.740
10 0 59598  52782.000000  0   -3310913.974  -2919026.512  -5296082.746
10 0 59598  52902.000000  0   -2910987.186  -2278119.371  -5819898.178
10 0 59598  53022.000000  0   -2449056.595  -1605227.386  -6242013.752
10 0 59598  53142.000000  0   -1932723.669   -913067.654  -6555142.999
10 0 59598  53262.000000  0   -1370736.016   -214525.085  -6753892.140
10 0 59598  53382.000000  0    -772839.444    477583.326  -6834841.696
10 0 59598  53502.000000  0    -149611.938   1150737.504  -6796599.047
10 0 59598  53622.000000  0     487718.917   1792934.907  -6639819.447
10 0 59598  53742.000000  0    1127472.322   2392899.115  -6367198.071
10 0 59598  53862.000000  0    1757724.586   2940275.200  -5983429.280
10 0 59598  53982.000000  0    2366526.934   3425807.851  -5495133.783
10 0 59598  54102.000000  0    2942129.166   3841498.652  -4910754.580
10 0 59598  54222.000000  0    3473205.259   4180742.038  -4240422.958
10 0 59598  54342.000000  0    3949077.871   4438436.771  -3495793.466
10 0 59598  54462.000000  0    4359936.703   4611069.407  -2689849.239
10 0 59598  54582.000000  0    4697044.643   4696766.872  -1836679.595
10 0 59598  54702.000000  0    4952927.648   4695317.630   -951235.569
10 0 59598  54822.000000  0    5121543.320   4608159.032    -49064.377
10 0 59598  54942.000000  0    5198421.005   4438331.185    853969.228
10 0 59598  55062.000000  0    5180772.701   4190399.290   1741968.628
10 0 59598  55182.000000  0    5067572.210   3870344.800   2599293.969
10 0 59598  55302.000000  0    4859597.061   3485427.031   3410847.263
10 0 59598  55422.000000  0    4559432.444   3044020.196   4162345.269
10 0 59598  55542.000000  0    4171439.042   2555429.933   4840574.611
10 0 59598  55662.000000  0    3701686.612   2029695.210   5433625.460
10 0 59598  55782.000000  0    3157850.866   1477379.547   5931099.803
10 0 59598  55902.000000  0    2549081.367    909355.788   6324288.510
10 0 59598  56022.000000  0    1885842.332    336590.455   6606316.322
10 0 59598  56142.000000  0    1179729.904   -230066.626   6772256.252
10 0 59598  56262.000000  0     443267.215   -780087.279   6819212.374
10 0 59598  56382.000000  0    -310318.900  -1303460.661   6746366.509
10 0 59598  56502.000000  0   -1067335.330  -1790874.980   6554990.991
10 0 59598  56622.000000  0   -1813870.577  -2233883.174   6248426.350
10 0 59598  56742.000000  0   -2536047.877  -2625048.700   5832026.456
10 0 59598  56862.000000  0   -3220283.131  -2958072.340   5313073.618
10 0 59598  56982.000000  0   -3853545.418  -3227897.457   4700657.702
10 0 59598  57102.000000  0   -4423609.739  -3430789.103   4005520.556
10 0 59598  57222.000000  0   -4919298.139  -3564386.445   3239871.089
10 0 59598  57342.000000  0   -5330704.934  -3627727.712   2417173.217
10 0 59598  57462.000000  0   -5649401.993  -3621247.602   1551908.204
10 0 59598  57582.000000  0   -5868616.666  -3546745.255    659314.438
10 0 59598  57702.000000  0   -5983377.976  -3407323.181   -244887.945
10 0 59598  57822.000000  0   -5990627.840  -3207299.820  -1144782.486
10 0 59598  57942.000000  0   -5889293.292  -2952096.753  -2024546.863
10 0 59598  58062.000000  0   -5680316.723  -2648103.486  -2868739.023
10 0 59598  58182.000000  0   -5366646.439  -2302525.061  -3662572.934
10 0 59598  58302.000000  0   -4953187.382  -1923215.815  -4392179.284
10 0 59598  58422.000000  0   -4446714.594  -1518503.981  -5044845.690
10 0 59598  58542.000000  0   -3855751.636  -1097011.168  -5609233.251
10 0 59598  58662.000000  0   -3190416.966   -667470.662  -6075564.748
10 0 59598  58782.000000  0   -2462243.355   -238549.199  -6435782.829
10 0 59598  58902.000000  0   -1683973.760    181324.185  -6683677.703
10 0 59598  59022.000000  0    -869337.343    584118.789  -6814982.632
10 0 59598  59142.000000  0     -32811.180    962351.262  -6827439.094
10 0 59598  59262.000000  0     810630.558   1309220.779  -6720830.754
10 0 59598  59382.000000  0    1645777.613   1618727.620  -6496989.315
10 0 59598  59502.000000  0    2457452.855   1885776.043  -6159766.948
10 0 59598  59622.000000  0    3230783.733   2106257.651  -5714976.668
10 0 59598  59742.000000  0    3951471.446   2277114.405  -5170301.144
10 0 59598  59862.000000  0    4606055.622   2396381.251  -4535172.265
10 0 59598  59982.000000  0    5182170.495   2463207.110  -3820618.485
10 0 59598  60102.000000  0    5668785.016   2477853.015  -3039082.057
10 0 59598  60222.000000  0    6056423.215   2441667.610  -2204210.019
10 0 59598  60342.000000  0    6337360.280   2357040.075  -1330618.227
10 0 59598  60462.000000  0    6505785.792   2227330.502   -433634.114
10 0 59598  60582.000000  0    6557932.297   2056779.451    470977.268
10 0 59598  60702.000000  0    6492161.411   1850397.872   1367297.751
10 0 59598  60822.000000  0    6309010.377   1613842.354   2239542.868
10 0 59598  60942.000000  0    6011194.480   1353276.343   3072350.087
10 0 59598  61062.000000  0    5603564.113   1075221.831   3851057.015
10 0 59598  61182.000000  0    5093018.753    786405.631   4561965.523
10 0 59598  61302.000000  0    4488381.279    493604.545   5192584.049
10 0 59598  61422.000000  0    3800236.371    203492.677   5731847.445
10 0 59598  61542.000000  0    3040734.483    -77506.035   6170307.863
10 0 59598  61662.000000  0    2223369.601   -343354.714   6500293.484
10 0 59598  61782.000000  0    1362735.249   -588529.152   6716037.215
10 0 59598  61902.000000  0     474260.446   -808130.135   6813773.013
10 0 59598  62022.000000  0    -426068.897   -997979.673   6791796.541
10 0 59598  62142.000000  0   -1321996.967  -1154699.975   6650492.111
10 0 59598  62262.000000  0   -2197290.245  -1275773.604   6392325.487
10 0 59598  62382.000000  0   -3036029.494  -1359583.276   6021803.261
10 0 59598  62502.000000  0   -3822899.764  -1405431.812   5545401.542
10 0 59598  62622.000000  0   -4543474.878  -1413542.972   4971459.532
10 0 59598  62742.000000  0   -5184488.483  -1385041.740   4310038.958
10 0 59598  62862.000000  0   -5734086.242  -1321913.895   3572751.148
10 0 59598  62982.000000  0   -6182053.019  -1226945.758   2772555.357
10 0 59598  63102.000000  0   -6520012.380  -1103646.133   1923532.513
10 0 59598  63222.000000  0   -6741594.458   -956151.821   1040634.099
99
